[{"OBJECT_NAME":"SALSAT","OBJECT_ID":"2020-068K","EPOCH":"2026-03-09T22:26:21.804576","MEAN_MOTION":15.28191989,"ECCENTRICITY":0.00082652,"INCLINATION":97.8859,"RA_OF_ASC_NODE":66.0795,"ARG_OF_PERICENTER":295.8051,"MEAN_ANOMALY":64.2334,"EPHEMERIS_TYPE":0,"CLASSIFICATION_TYPE":"U","NORAD_CAT_ID":46495,"ELEMENT_SET_NO":999,"REV_AT_EPOCH":30019,"BSTAR":0.00040842582,"MEAN_MOTION_DOT":0.00011156,"MEAN_MOTION_DDOT":0},{"OBJECT_NAME":"STARLINK-31560","OBJECT_ID":"2024-060P","EPOCH":"2026-03-09T13:49:23.248128","MEAN_MOTION":15.27564558,"ECCENTRICITY":0.0001084,"INCLINATION":43.0032,"RA_OF_ASC_NODE":260.65,"ARG_OF_PERICENTER":262.1715,"MEAN_ANOMALY":97.9014,"EPHEMERIS_TYPE":0,"CLASSIFICATION_TYPE":"U","NORAD_CAT_ID":59361,"ELEMENT_SET_NO":999,"REV_AT_EPOCH":11004,"BSTAR":-8.8704e-6,"MEAN_MOTION_DOT":-5.06e-6,"MEAN_MOTION_DDOT":0}]
